start=new Date('2022-11-26T00:00:00.000Z').valueOf();
sats=[{"PERIOD":"95.592","MEAN_MOTION_DOT":"-0.00000742","LAUNCH_DATE":"2020-01-29","REF_FRAME":"TEME","OBJECT_NAME":"STARLINK-1139","MEAN_MOTION_DDOT":"0.0000000000000","RCS_SIZE":"LARGE","TIME_SYSTEM":"UTC","REV_AT_EPOCH":"15580","CENTER_NAME":"EARTH","OBJECT_ID":"2020-006X","EPHEMERIS_TYPE":"0","SITE":"AFETR","CLASSIFICATION_TYPE":"U","ARG_OF_PERICENTER":"53.4135","EPOCH":"2022-11-25T05:17:16.059264","OBJECT_TYPE":"PAYLOAD","COUNTRY_CODE":"US","TLE_LINE1":"1 45065U 20006X   22329.22032476 -.00000742  00000-0 -30900-4 0  9993","TLE_LINE2":"2 45065  53.0563 255.7481 0001815  53.4135 306.7021 15.06395082155809","ELEMENT_SET_NO":"999","MEAN_ELEMENT_THEORY":"SGP4","FILE":"3669850","RA_OF_ASC_NODE":"255.7481","BSTAR":"-0.00003090000000","APOAPSIS":"548.486","SEMIMAJOR_AXIS":"6925.364","GP_ID":"218758590","DECAY_DATE":null,"PERIAPSIS":"545.972","ECCENTRICITY":"0.00018150","MEAN_ANOMALY":"306.7021","NORAD_CAT_ID":"45065","INCLINATION":"53.0563","MEAN_MOTION":"15.06395082"},{"CENTER_NAME":"EARTH","OBJECT_ID":"2020-006Y","SITE":"AFETR","EPHEMERIS_TYPE":"0","CLASSIFICATION_TYPE":"U","ARG_OF_PERICENTER":"50.6719","EPOCH":"2022-11-25T12:37:47.661312","OBJECT_TYPE":"PAYLOAD","PERIOD":"95.592","MEAN_MOTION_DOT":"0.00001441","LAUNCH_DATE":"2020-01-29","REF_FRAME":"TEME","OBJECT_NAME":"STARLINK-1145","MEAN_MOTION_DDOT":"0.0000000000000","RCS_SIZE":"LARGE","TIME_SYSTEM":"UTC","REV_AT_EPOCH":"15584","GP_ID":"218758341","DECAY_DATE":null,"PERIAPSIS":"545.786","ECCENTRICITY":"0.00020420","MEAN_ANOMALY":"309.4451","NORAD_CAT_ID":"45066","INCLINATION":"53.0565","MEAN_MOTION":"15.06404320","COUNTRY_CODE":"US","TLE_LINE2":"2 45066  53.0565 254.3592 0002042  50.6719 309.4451 15.06404320155847","ELEMENT_SET_NO":"999","TLE_LINE1":"1 45066U 20006Y   22329.52624608  .00001441  00000-0  11564-3 0  9990","FILE":"3669850","MEAN_ELEMENT_THEORY":"SGP4","RA_OF_ASC_NODE":"254.3592","BSTAR":"0.00011564000000","APOAPSIS":"548.614","SEMIMAJOR_AXIS":"6925.335"},{"LAUNCH_DATE":"2020-01-29","MEAN_MOTION_DOT":"0.00000999","PERIOD":"95.593","OBJECT_NAME":"STARLINK-1150","MEAN_MOTION_DDOT":"0.0000000000000","REF_FRAME":"TEME","RCS_SIZE":"LARGE","REV_AT_EPOCH":"15580","TIME_SYSTEM":"UTC","CENTER_NAME":"EARTH","ARG_OF_PERICENTER":"54.6850","CLASSIFICATION_TYPE":"U","SITE":"AFETR","EPHEMERIS_TYPE":"0","OBJECT_ID":"2020-006Z","OBJECT_TYPE":"PAYLOAD","EPOCH":"2022-11-25T05:01:20.198784","ELEMENT_SET_NO":"999","TLE_LINE2":"2 45067  53.0542 255.7937 0001791  54.6850 305.4306 15.06394245155806","TLE_LINE1":"1 45067U 20006Z   22329.20926156  .00000999  00000-0  85988-4 0  9998","COUNTRY_CODE":"US","BSTAR":"0.00008598800000","RA_OF_ASC_NODE":"255.7937","FILE":"3669850","MEAN_ELEMENT_THEORY":"SGP4","SEMIMAJOR_AXIS":"6925.366","APOAPSIS":"548.472","DECAY_DATE":null,"GP_ID":"218759592","ECCENTRICITY":"0.00017910","PERIAPSIS":"545.991","INCLINATION":"53.0542","NORAD_CAT_ID":"45067","MEAN_ANOMALY":"305.4306","MEAN_MOTION":"15.06394245"},{"MEAN_MOTION":"15.06401854","INCLINATION":"53.0541","NORAD_CAT_ID":"45068","MEAN_ANOMALY":"289.4894","ECCENTRICITY":"0.00015230","PERIAPSIS":"546.153","GP_ID":"218818280","DECAY_DATE":null,"SEMIMAJOR_AXIS":"6925.343","APOAPSIS":"548.263","BSTAR":"0.00013844000000","RA_OF_ASC_NODE":"253.0996","MEAN_ELEMENT_THEORY":"SGP4","FILE":"3670141","TLE_LINE2":"2 45068  53.0541 253.0996 0001523  70.6259 289.4894 15.06401854155882","TLE_LINE1":"1 45068U 20006AA  22329.77961902  .00001781  00000-0  13844-3 0  9990","ELEMENT_SET_NO":"999","COUNTRY_CODE":"US","EPOCH":"2022-11-25T18:42:39.083328","OBJECT_TYPE":"PAYLOAD","CLASSIFICATION_TYPE":"U","ARG_OF_PERICENTER":"70.6259","OBJECT_ID":"2020-006AA","SITE":"AFETR","EPHEMERIS_TYPE":"0","CENTER_NAME":"EARTH","REV_AT_EPOCH":"15588","TIME_SYSTEM":"UTC","RCS_SIZE":"LARGE","OBJECT_NAME":"STARLINK-1161","MEAN_MOTION_DDOT":"0.0000000000000","REF_FRAME":"TEME","LAUNCH_DATE":"2020-01-29","MEAN_MOTION_DOT":"0.00001781","PERIOD":"95.592"},{"CENTER_NAME":"EARTH","OBJECT_TYPE":"PAYLOAD","EPOCH":"2022-11-25T18:33:26.015328","ARG_OF_PERICENTER":"55.4276","CLASSIFICATION_TYPE":"U","SITE":"AFETR","EPHEMERIS_TYPE":"0","OBJECT_ID":"2020-006AD","OBJECT_NAME":"STARLINK-1167","MEAN_MOTION_DDOT":"0.0000000000000","REF_FRAME":"TEME","LAUNCH_DATE":"2020-01-29","MEAN_MOTION_DOT":"0.00000198","PERIOD":"95.592","REV_AT_EPOCH":"15588","TIME_SYSTEM":"UTC","RCS_SIZE":"LARGE","ECCENTRICITY":"0.00020170","PERIAPSIS":"545.831","DECAY_DATE":null,"GP_ID":"218818529","MEAN_MOTION":"15.06395450","NORAD_CAT_ID":"45071","INCLINATION":"53.0548","MEAN_ANOMALY":"304.6903","BSTAR":"0.00003219500000","RA_OF_ASC_NODE":"253.2489","FILE":"3670141","MEAN_ELEMENT_THEORY":"SGP4","TLE_LINE1":"1 45071U 20006AD  22329.77321777  .00000198  00000-0  32195-4 0  9996","TLE_LINE2":"2 45071  53.0548 253.2489 0002017  55.4276 304.6903 15.06395450155886","ELEMENT_SET_NO":"999","COUNTRY_CODE":"US","SEMIMAJOR_AXIS":"6925.363","APOAPSIS":"548.624"},{"REV_AT_EPOCH":"15584","TIME_SYSTEM":"UTC","RCS_SIZE":"LARGE","MEAN_MOTION_DDOT":"0.0000000000000","OBJECT_NAME":"STARLINK-1168","REF_FRAME":"TEME","LAUNCH_DATE":"2020-01-29","MEAN_MOTION_DOT":"0.00000780","PERIOD":"95.593","OBJECT_TYPE":"PAYLOAD","EPOCH":"2022-11-25T12:16:34.201344","ARG_OF_PERICENTER":"64.0276","CLASSIFICATION_TYPE":"U","SITE":"AFETR","EPHEMERIS_TYPE":"0","OBJECT_ID":"2020-006AE","CENTER_NAME":"EARTH","SEMIMAJOR_AXIS":"6925.374","APOAPSIS":"548.319","RA_OF_ASC_NODE":"254.4364","BSTAR":"0.00007130300000","MEAN_ELEMENT_THEORY":"SGP4","FILE":"3669850","ELEMENT_SET_NO":"999","TLE_LINE2":"2 45072  53.0545 254.4364 0001560  64.0276 296.0874 15.06391782155848","TLE_LINE1":"1 45072U 20006AE  22329.51150696  .00000780  00000-0  71303-4 0  9990","COUNTRY_CODE":"US","MEAN_MOTION":"15.06391782","NORAD_CAT_ID":"45072","INCLINATION":"53.0545","MEAN_ANOMALY":"296.0874","ECCENTRICITY":"0.00015600","PERIAPSIS":"546.158","DECAY_DATE":null,"GP_ID":"218758841"},{"TLE_LINE2":"2 45073  53.0559 254.3087 0002090  47.1522 312.9642 15.06405489155841","ELEMENT_SET_NO":"999","TLE_LINE1":"1 45073U 20006AF  22329.53730836  .00002218  00000-0  16774-3 0  9991","COUNTRY_CODE":"US","BSTAR":"0.00016774000000","RA_OF_ASC_NODE":"254.3087","MEAN_ELEMENT_THEORY":"SGP4","FILE":"3669850","SEMIMAJOR_AXIS":"6925.332","APOAPSIS":"548.644","GP_ID":"218759093","DECAY_DATE":null,"ECCENTRICITY":"0.00020900","PERIAPSIS":"545.749","NORAD_CAT_ID":"45073","INCLINATION":"53.0559","MEAN_ANOMALY":"312.9642","MEAN_MOTION":"15.06405489","LAUNCH_DATE":"2020-01-29","MEAN_MOTION_DOT":"0.00002218","PERIOD":"95.592","OBJECT_NAME":"STARLINK-1170","MEAN_MOTION_DDOT":"0.0000000000000","REF_FRAME":"TEME","RCS_SIZE":"LARGE","REV_AT_EPOCH":"15584","TIME_SYSTEM":"UTC","CENTER_NAME":"EARTH","CLASSIFICATION_TYPE":"U","ARG_OF_PERICENTER":"47.1522","OBJECT_ID":"2020-006AF","SITE":"AFETR","EPHEMERIS_TYPE":"0","EPOCH":"2022-11-25T12:53:43.442304","OBJECT_TYPE":"PAYLOAD"},{"ARG_OF_PERICENTER":"66.7918","CLASSIFICATION_TYPE":"U","SITE":"AFETR","EPHEMERIS_TYPE":"0","OBJECT_ID":"2020-006AG","OBJECT_TYPE":"PAYLOAD","EPOCH":"2022-11-25T04:34:48.312480","CENTER_NAME":"EARTH","RCS_SIZE":"LARGE","REV_AT_EPOCH":"15579","TIME_SYSTEM":"UTC","MEAN_MOTION_DOT":"0.00001538","LAUNCH_DATE":"2020-01-29","PERIOD":"95.593","OBJECT_NAME":"STARLINK-1172","MEAN_MOTION_DDOT":"0.0000000000000","REF_FRAME":"TEME","NORAD_CAT_ID":"45074","INCLINATION":"53.0561","MEAN_ANOMALY":"293.3244","MEAN_MOTION":"15.06392224","DECAY_DATE":null,"GP_ID":"218759842","ECCENTRICITY":"0.00016490","PERIAPSIS":"546.095","SEMIMAJOR_AXIS":"6925.372","APOAPSIS":"548.379","ELEMENT_SET_NO":"999","TLE_LINE2":"2 45074  53.0561 255.8667 0001649  66.7918 293.3244 15.06392224155796","TLE_LINE1":"1 45074U 20006AG  22329.19083695  .00001538  00000-0  12215-3 0  9998","COUNTRY_CODE":"US","RA_OF_ASC_NODE":"255.8667","BSTAR":"0.00012215000000","FILE":"3669850","MEAN_ELEMENT_THEORY":"SGP4"},{"DECAY_DATE":null,"GP_ID":"218818030","ECCENTRICITY":"0.00017490","PERIAPSIS":"546.012","INCLINATION":"53.0560","NORAD_CAT_ID":"45075","MEAN_ANOMALY":"299.0943","MEAN_MOTION":"15.06396761","TLE_LINE1":"1 45075U 20006AH  22329.82112685  .00001570  00000-0  12427-3 0  9992","TLE_LINE2":"2 45075  53.0560 253.0451 0001749  61.0221 299.0943 15.06396761155893","ELEMENT_SET_NO":"999","COUNTRY_CODE":"US","BSTAR":"0.00012427000000","RA_OF_ASC_NODE":"253.0451","MEAN_ELEMENT_THEORY":"SGP4","FILE":"3670141","SEMIMAJOR_AXIS":"6925.358","APOAPSIS":"548.435","CENTER_NAME":"EARTH","ARG_OF_PERICENTER":"61.0221","CLASSIFICATION_TYPE":"U","SITE":"AFETR","EPHEMERIS_TYPE":"0","OBJECT_ID":"2020-006AH","OBJECT_TYPE":"PAYLOAD","EPOCH":"2022-11-25T19:42:25.359840","LAUNCH_DATE":"2020-01-29","MEAN_MOTION_DOT":"0.00001570","PERIOD":"95.592","OBJECT_NAME":"STARLINK-1174","MEAN_MOTION_DDOT":"0.0000000000000","REF_FRAME":"TEME","RCS_SIZE":"LARGE","REV_AT_EPOCH":"15589","TIME_SYSTEM":"UTC"},{"OBJECT_TYPE":"PAYLOAD","EPOCH":"2022-11-25T11:53:58.458336","EPHEMERIS_TYPE":"0","SITE":"AFETR","OBJECT_ID":"2020-006AJ","ARG_OF_PERICENTER":"58.4920","CLASSIFICATION_TYPE":"U","CENTER_NAME":"EARTH","TIME_SYSTEM":"UTC","REV_AT_EPOCH":"15584","RCS_SIZE":"LARGE","REF_FRAME":"TEME","OBJECT_NAME":"STARLINK-1180","MEAN_MOTION_DDOT":"0.0000000000000","PERIOD":"95.592","LAUNCH_DATE":"2020-01-29","MEAN_MOTION_DOT":"0.00001405","MEAN_MOTION":"15.06407307","MEAN_ANOMALY":"301.6237","NORAD_CAT_ID":"45076","INCLINATION":"53.0562","PERIAPSIS":"545.997","ECCENTRICITY":"0.00017240","DECAY_DATE":null,"GP_ID":"218758342","APOAPSIS":"548.385","SEMIMAJOR_AXIS":"6925.326","MEAN_ELEMENT_THEORY":"SGP4","FILE":"3669850","BSTAR":"0.00011321000000","RA_OF_ASC_NODE":"254.4994","COUNTRY_CODE":"US","ELEMENT_SET_NO":"999","TLE_LINE2":"2 45076  53.0562 254.4994 0001724  58.4920 301.6237 15.06407307155842","TLE_LINE1":"1 45076U 20006AJ  22329.49581549  .00001405  00000-0  11321-3 0  9994"}];
